{"type": "FeatureCollection", "features": [ {"type": "Feature", "properties": {"norad_id": 41335, "name": "SENTINEL-3A", "group": "resource", "lat": 55.55793039605893, "lon": -117.9342470162728, "alt_km": 796.7188374648122, "timestamp": "2025-12-10T05:46:13.454657+00:00", "meta": {"OBJECT_NAME": "SENTINEL-3A", "OBJECT_ID": "2016-011A", "EPOCH": "2025-12-09T19:05:43.404864", "MEAN_MOTION": 14.26745028, "ECCENTRICITY": 9.56e-05, "INCLINATION": 98.6211, "RA_OF_ASC_NODE": 48.8471, "ARG_OF_PERICENTER": 93.3556, "MEAN_ANOMALY": 266.7734, "EPHEMERIS_TYPE": 0, "CLASSIFICATION_TYPE": "U", "NORAD_CAT_ID": 41335, "ELEMENT_SET_NO": 999, "REV_AT_EPOCH": 51105, "BSTAR": 0.00012672, "MEAN_MOTION_DOT": 2.63e-06, "MEAN_MOTION_DDOT": 0}, "tle": {"line1": "1 41335U 16011A   25343.79564126  .00000263  00000+0  12672-3 0  9993", "line2": "2 41335  98.6211  48.8471 0000956  93.3556 266.7734 14.26745028511054"}}, "geometry": {"type": "Point", "coordinates": [-117.9342470162728, 55.55793039605893]}}, {"type": "Feature", "properties": {"norad_id": 41556, "name": "ZIYUAN 3-2 (ZY 3-2)", "group": "resource", "lat": 74.12902138478111, "lon": -94.33278147369649, "alt_km": 502.1598179008188, "timestamp": "2025-12-10T05:46:13.454668+00:00", "meta": {"OBJECT_NAME": "ZIYUAN 3-2 (ZY 3-2)", "OBJECT_ID": "2016-033A", "EPOCH": "2025-12-09T19:50:35.086272", "MEAN_MOTION": 15.21435294, "ECCENTRICITY": 0.001242, "INCLINATION": 97.4041, "RA_OF_ASC_NODE": 58.0415, "ARG_OF_PERICENTER": 260.4121, "MEAN_ANOMALY": 99.5712, "EPHEMERIS_TYPE": 0, "CLASSIFICATION_TYPE": "U", "NORAD_CAT_ID": 41556, "ELEMENT_SET_NO": 999, "REV_AT_EPOCH": 52919, "BSTAR": 0.00051351, "MEAN_MOTION_DOT": 0.00011495, "MEAN_MOTION_DDOT": 0}, "tle": {"line1": "1 41556U 16033A   25343.82679498  .00011495  00000+0  51351-3 0  9991", "line2": "2 41556  97.4041  58.0415 0012420 260.4121  99.5712 15.21435294529191"}}, "geometry": {"type": "Point", "coordinates": [-94.33278147369649, 74.12902138478111]}}, {"type": "Feature", "properties": {"norad_id": 41599, "name": "CARTOSAT-2C", "group": "resource", "lat": 66.54296925711273, "lon": 23.89874585873682, "alt_km": 494.1479612674302, "timestamp": "2025-12-10T05:46:13.454678+00:00", "meta": {"OBJECT_NAME": "CARTOSAT-2C", "OBJECT_ID": "2016-040A", "EPOCH": "2025-12-09T19:59:22.382880", "MEAN_MOTION": 15.19246808, "ECCENTRICITY": 0.0010905, "INCLINATION": 97.4765, "RA_OF_ASC_NODE": 41.1123, "ARG_OF_PERICENTER": 73.3414, "MEAN_ANOMALY": 286.9017, "EPHEMERIS_TYPE": 0, "CLASSIFICATION_TYPE": "U", "NORAD_CAT_ID": 41599, "ELEMENT_SET_NO": 999, "REV_AT_EPOCH": 52496, "BSTAR": 0.00026506, "MEAN_MOTION_DOT": 5.526e-05, "MEAN_MOTION_DDOT": 0}, "tle": {"line1": "1 41599U 16040A   25343.83289795  .00005526  00000+0  26506-3 0  9996", "line2": "2 41599  97.4765  41.1123 0010905  73.3414 286.9017 15.19246808524960"}}, "geometry": {"type": "Point", "coordinates": [23.89874585873682, 66.54296925711273]}}, {"type": "Feature", "properties": {"norad_id": 41601, "name": "SKYSAT-C1", "group": "resource", "lat": 3.6005499427142076, "lon": 20.95292136286107, "alt_km": 469.1619707259915, "timestamp": "2025-12-10T05:46:13.454689+00:00", "meta": {"OBJECT_NAME": "SKYSAT-C1", "OBJECT_ID": "2016-040C", "EPOCH": "2025-12-09T09:22:57.016416", "MEAN_MOTION": 15.32493174, "ECCENTRICITY": 0.0002745, "INCLINATION": 96.9826, "RA_OF_ASC_NODE": 20.5932, "ARG_OF_PERICENTER": 25.1532, "MEAN_ANOMALY": 334.9844, "EPHEMERIS_TYPE": 0, "CLASSIFICATION_TYPE": "U", "NORAD_CAT_ID": 41601, "ELEMENT_SET_NO": 999, "REV_AT_EPOCH": 52876, "BSTAR": 0.00040404839, "MEAN_MOTION_DOT": 0.00012613, "MEAN_MOTION_DDOT": 0}, "tle": {"line1": "1 41601U 16040C   25343.39093769  .00012613  00000+0  40405-3 0  9994", "line2": "2 41601  96.9826  20.5932 0002745  25.1532 334.9844 15.32493174528763"}}, "geometry": {"type": "Point", "coordinates": [20.95292136286107, 3.6005499427142076]}}, {"type": "Feature", "properties": {"norad_id": 41603, "name": "LAPAN-A3", "group": "resource", "lat": 23.056952239942884, "lon": 164.94728102112043, "alt_km": 477.76001866153183, "timestamp": "2025-12-10T05:46:13.454699+00:00", "meta": {"OBJECT_NAME": "LAPAN-A3", "OBJECT_ID": "2016-040E", "EPOCH": "2025-12-09T21:14:53.228256", "MEAN_MOTION": 15.31516375, "ECCENTRICITY": 0.0009993, "INCLINATION": 97.1432, "RA_OF_ASC_NODE": 341.5451, "ARG_OF_PERICENTER": 344.9404, "MEAN_ANOMALY": 15.1539, "EPHEMERIS_TYPE": 0, "CLASSIFICATION_TYPE": "U", "NORAD_CAT_ID": 41603, "ELEMENT_SET_NO": 999, "REV_AT_EPOCH": 52582, "BSTAR": 0.00020932, "MEAN_MOTION_DOT": 6.305e-05, "MEAN_MOTION_DDOT": 0}, "tle": {"line1": "1 41603U 16040E   25343.88533829  .00006305  00000+0  20932-3 0  9990", "line2": "2 41603  97.1432 341.5451 0009993 344.9404  15.1539 15.31516375525826"}}, "geometry": {"type": "Point", "coordinates": [164.94728102112043, 23.056952239942884]}}, {"type": "Feature", "properties": {"norad_id": 41604, "name": "BIROS", "group": "resource", "lat": -2.0484276708550047, "lon": -164.68060500483404, "alt_km": 307.8068596497824, "timestamp": "2025-12-10T05:46:13.454709+00:00", "meta": {"OBJECT_NAME": "BIROS", "OBJECT_ID": "2016-040F", "EPOCH": "2025-12-09T19:56:08.052864", "MEAN_MOTION": 15.88407667, "ECCENTRICITY": 0.0003225, "INCLINATION": 97.07, "RA_OF_ASC_NODE": 15.1481, "ARG_OF_PERICENTER": 155.5265, "MEAN_ANOMALY": 204.6161, "EPHEMERIS_TYPE": 0, "CLASSIFICATION_TYPE": "U", "NORAD_CAT_ID": 41604, "ELEMENT_SET_NO": 999, "REV_AT_EPOCH": 52826, "BSTAR": 0.00071144, "MEAN_MOTION_DOT": 0.00199717, "MEAN_MOTION_DDOT": 0}, "tle": {"line1": "1 41604U 16040F   25343.83064876  .00199717  00000+0  71144-3 0  9998", "line2": "2 41604  97.0700  15.1481 0003225 155.5265 204.6161 15.88407667528266"}}, "geometry": {"type": "Point", "coordinates": [-164.68060500483404, -2.0484276708550047]}}, {"type": "Feature", "properties": {"norad_id": 41727, "name": "GAOFEN-3", "group": "resource", "lat": 15.863910999682775, "lon": -12.543380921293176, "alt_km": 751.1594881185174, "timestamp": "2025-12-10T05:46:13.454720+00:00", "meta": {"OBJECT_NAME": "GAOFEN-3", "OBJECT_ID": "2016-049A", "EPOCH": "2025-12-09T21:22:15.154752", "MEAN_MOTION": 14.42211814, "ECCENTRICITY": 0.0001497, "INCLINATION": 98.4038, "RA_OF_ASC_NODE": 349.5197, "ARG_OF_PERICENTER": 64.8231, "MEAN_ANOMALY": 295.3114, "EPHEMERIS_TYPE": 0, "CLASSIFICATION_TYPE": "U", "NORAD_CAT_ID": 41727, "ELEMENT_SET_NO": 999, "REV_AT_EPOCH": 49136, "BSTAR": -6.8287e-06, "MEAN_MOTION_DOT": -6.6e-07, "MEAN_MOTION_DDOT": 0}, "tle": {"line1": "1 41727U 16049A   25343.89045318 -.00000066  00000+0 -68287-5 0  9995", "line2": "2 41727  98.4038 349.5197 0001497  64.8231 295.3114 14.42211814491364"}}, "geometry": {"type": "Point", "coordinates": [-12.543380921293176, 15.863910999682775]}}, {"type": "Feature", "properties": {"norad_id": 41771, "name": "SKYSAT-C4", "group": "resource", "lat": -32.24122536814594, "lon": -174.85515662053098, "alt_km": 445.95387915506035, "timestamp": "2025-12-10T05:46:13.454730+00:00", "meta": {"OBJECT_NAME": "SKYSAT-C4", "OBJECT_ID": "2016-058B", "EPOCH": "2025-12-09T00:49:12.473760", "MEAN_MOTION": 15.42085038, "ECCENTRICITY": 0.00011565, "INCLINATION": 96.9374, "RA_OF_ASC_NODE": 8.402, "ARG_OF_PERICENTER": 132.7744, "MEAN_ANOMALY": 227.3602, "EPHEMERIS_TYPE": 0, "CLASSIFICATION_TYPE": "U", "NORAD_CAT_ID": 41771, "ELEMENT_SET_NO": 999, "REV_AT_EPOCH": 51610, "BSTAR": 0.00040944192, "MEAN_MOTION_DOT": 0.00017439, "MEAN_MOTION_DDOT": 0}, "tle": {"line1": "1 41771U 16058B   25343.03417215  .00017439  00000+0  40944-3 0  9997", "line2": "2 41771  96.9374   8.4020 0001156 132.7744 227.3602 15.42085038516106"}}, "geometry": {"type": "Point", "coordinates": [-174.85515662053098, -32.24122536814594]}}, {"type": "Feature", "properties": {"norad_id": 41772, "name": "SKYSAT-C5", "group": "resource", "lat": -9.693469134591517, "lon": -153.12474942741616, "alt_km": 463.3681365679631, "timestamp": "2025-12-10T05:46:13.454740+00:00", "meta": {"OBJECT_NAME": "SKYSAT-C5", "OBJECT_ID": "2016-058C", "EPOCH": "2025-12-09T02:21:16.658208", "MEAN_MOTION": 15.35258883, "ECCENTRICITY": 0.00022673, "INCLINATION": 97.0758, "RA_OF_ASC_NODE": 26.9942, "ARG_OF_PERICENTER": 143.2849, "MEAN_ANOMALY": 216.8551, "EPHEMERIS_TYPE": 0, "CLASSIFICATION_TYPE": "U", "NORAD_CAT_ID": 41772, "ELEMENT_SET_NO": 999, "REV_AT_EPOCH": 51460, "BSTAR": 0.00035120172, "MEAN_MOTION_DOT": 0.00011953, "MEAN_MOTION_DDOT": 0}, "tle": {"line1": "1 41772U 16058C   25343.09810947  .00011953  00000+0  35120-3 0  9998", "line2": "2 41772  97.0758  26.9942 0002267 143.2849 216.8551 15.35258883514601"}}, "geometry": {"type": "Point", "coordinates": [-153.12474942741616, -9.693469134591517]}}, {"type": "Feature", "properties": {"norad_id": 41773, "name": "SKYSAT-C2", "group": "resource", "lat": -1.8595649626193855, "lon": -171.3569031186401, "alt_km": 460.2356169922268, "timestamp": "2025-12-10T05:46:13.454750+00:00", "meta": {"OBJECT_NAME": "SKYSAT-C2", "OBJECT_ID": "2016-058D", "EPOCH": "2025-12-09T19:36:30.571200", "MEAN_MOTION": 15.37164214, "ECCENTRICITY": 0.0004529, "INCLINATION": 97.0363, "RA_OF_ASC_NODE": 8.4674, "ARG_OF_PERICENTER": 42.0421, "MEAN_ANOMALY": 318.1171, "EPHEMERIS_TYPE": 0, "CLASSIFICATION_TYPE": "U", "NORAD_CAT_ID": 41773, "ELEMENT_SET_NO": 999, "REV_AT_EPOCH": 51591, "BSTAR": 0.00046385, "MEAN_MOTION_DOT": 0.00016823, "MEAN_MOTION_DDOT": 0}, "tle": {"line1": "1 41773U 16058D   25343.81702050  .00016823  00000+0  46385-3 0  9990", "line2": "2 41773  97.0363   8.4674 0004529  42.0421 318.1171 15.37164214515911"}}, "geometry": {"type": "Point", "coordinates": [-171.3569031186401, -1.8595649626193855]}}]}